start=new Date('2022-03-22T00:00:00.000Z').valueOf();
sats=[{"FILE":"3368836","PERIOD":"95.592","GP_ID":"199348865","MEAN_MOTION_DDOT":"0.0000000000000","MEAN_ANOMALY":"294.5608","OBJECT_ID":"2020-088AH","LAUNCH_DATE":"2020-11-25","SITE":"AFETR","EPHEMERIS_TYPE":"0","OBJECT_NAME":"STARLINK-1867","CLASSIFICATION_TYPE":"U","OBJECT_TYPE":"PAYLOAD","DECAY_DATE":null,"BSTAR":"0.00004076900000","ECCENTRICITY":"0.00015580","NORAD_CAT_ID":"47153","TIME_SYSTEM":"UTC","MEAN_MOTION_DOT":"0.00000326","TLE_LINE2":"2 47153  53.0547 330.4993 0001558  65.5543 294.5608 15.06408782 73403","TLE_LINE1":"1 47153U 20088AH  22080.89764367  .00000326  00000-0  40769-4 0  9991","APOAPSIS":"548.266","PERIAPSIS":"546.108","CENTER_NAME":"EARTH","ARG_OF_PERICENTER":"65.5543","REF_FRAME":"TEME","MEAN_ELEMENT_THEORY":"SGP4","REV_AT_EPOCH":"7340","ELEMENT_SET_NO":"999","INCLINATION":"53.0547","EPOCH":"2022-03-21T21:32:36.413088","COUNTRY_CODE":"US","RCS_SIZE":"LARGE","SEMIMAJOR_AXIS":"6925.322","RA_OF_ASC_NODE":"330.4993","MEAN_MOTION":"15.06408782"},{"MEAN_MOTION_DDOT":"0.0000000000000","MEAN_ANOMALY":"288.3772","PERIOD":"95.592","GP_ID":"199347115","SITE":"AFETR","EPHEMERIS_TYPE":"0","LAUNCH_DATE":"2020-11-25","OBJECT_ID":"2020-088AJ","FILE":"3368836","TIME_SYSTEM":"UTC","MEAN_MOTION_DOT":"-0.00000873","ECCENTRICITY":"0.00015780","NORAD_CAT_ID":"47154","TLE_LINE2":"2 47154  53.0534 315.5103 0001578  71.7389 288.3772 15.06404816 73616","OBJECT_NAME":"STARLINK-1868","OBJECT_TYPE":"PAYLOAD","BSTAR":"-0.00003970000000","DECAY_DATE":null,"CLASSIFICATION_TYPE":"U","CENTER_NAME":"EARTH","ARG_OF_PERICENTER":"71.7389","APOAPSIS":"548.292","PERIAPSIS":"546.106","TLE_LINE1":"1 47154U 20088AJ  22080.89444638 -.00000873  00000-0 -39700-4 0  9990","RCS_SIZE":"LARGE","COUNTRY_CODE":"US","SEMIMAJOR_AXIS":"6925.334","EPOCH":"2022-03-21T21:28:00.167232","MEAN_MOTION":"15.06404816","RA_OF_ASC_NODE":"315.5103","REV_AT_EPOCH":"7361","ELEMENT_SET_NO":"999","REF_FRAME":"TEME","MEAN_ELEMENT_THEORY":"SGP4","INCLINATION":"53.0534"},{"APOAPSIS":"548.199","PERIAPSIS":"546.113","TLE_LINE1":"1 47155U 20088AK  22080.86310804  .00002592  00000-0  19275-3 0  9997","CENTER_NAME":"EARTH","ARG_OF_PERICENTER":"67.7679","REV_AT_EPOCH":"7332","ELEMENT_SET_NO":"999","REF_FRAME":"TEME","MEAN_ELEMENT_THEORY":"SGP4","INCLINATION":"53.0563","COUNTRY_CODE":"US","RCS_SIZE":"LARGE","SEMIMAJOR_AXIS":"6925.291","EPOCH":"2022-03-21T20:42:52.534656","MEAN_MOTION":"15.06418797","RA_OF_ASC_NODE":"335.6479","FILE":"3368836","MEAN_MOTION_DDOT":"0.0000000000000","MEAN_ANOMALY":"292.3469","PERIOD":"95.591","GP_ID":"199347365","SITE":"AFETR","EPHEMERIS_TYPE":"0","OBJECT_ID":"2020-088AK","LAUNCH_DATE":"2020-11-25","OBJECT_NAME":"STARLINK-1869","OBJECT_TYPE":"PAYLOAD","DECAY_DATE":null,"BSTAR":"0.00019275000000","CLASSIFICATION_TYPE":"U","TIME_SYSTEM":"UTC","MEAN_MOTION_DOT":"0.00002592","ECCENTRICITY":"0.00015060","NORAD_CAT_ID":"47155","TLE_LINE2":"2 47155  53.0563 335.6479 0001506  67.7679 292.3469 15.06418797 73325"},{"OBJECT_TYPE":"PAYLOAD","BSTAR":"-0.00012756000000","DECAY_DATE":null,"CLASSIFICATION_TYPE":"U","OBJECT_NAME":"STARLINK-1870","TLE_LINE2":"2 47156  53.0470 194.1859 0008250 277.8830  82.1259 15.90862807 75310","TIME_SYSTEM":"UTC","MEAN_MOTION_DOT":"-0.00044544","ECCENTRICITY":"0.00082500","NORAD_CAT_ID":"47156","FILE":"3368836","SITE":"AFETR","EPHEMERIS_TYPE":"0","OBJECT_ID":"2020-088AL","LAUNCH_DATE":"2020-11-25","MEAN_MOTION_DDOT":"0.0000116240000","MEAN_ANOMALY":"82.1259","PERIOD":"90.517","GP_ID":"199348615","INCLINATION":"53.0470","REV_AT_EPOCH":"7531","ELEMENT_SET_NO":"999","MEAN_ELEMENT_THEORY":"SGP4","REF_FRAME":"TEME","MEAN_MOTION":"15.90862807","RA_OF_ASC_NODE":"194.1859","COUNTRY_CODE":"US","RCS_SIZE":"LARGE","SEMIMAJOR_AXIS":"6678.004","EPOCH":"2022-03-21T19:09:24.906816","APOAPSIS":"305.379","PERIAPSIS":"294.360","TLE_LINE1":"1 47156U 20088AL  22080.79820494 -.00044544  11624-4 -12756-3 0  9991","ARG_OF_PERICENTER":"277.8830","CENTER_NAME":"EARTH"},{"TLE_LINE2":"2 47157  53.0548 325.4716 0001582  69.0196 291.0962 15.06397796 73479","NORAD_CAT_ID":"47157","ECCENTRICITY":"0.00015820","MEAN_MOTION_DOT":"0.00001421","TIME_SYSTEM":"UTC","CLASSIFICATION_TYPE":"U","DECAY_DATE":null,"BSTAR":"0.00011427000000","OBJECT_TYPE":"PAYLOAD","OBJECT_NAME":"STARLINK-1871","OBJECT_ID":"2020-088AM","LAUNCH_DATE":"2020-11-25","EPHEMERIS_TYPE":"0","SITE":"AFETR","GP_ID":"199348367","PERIOD":"95.592","MEAN_ANOMALY":"291.0962","MEAN_MOTION_DDOT":"0.0000000000000","FILE":"3368836","RA_OF_ASC_NODE":"325.4716","MEAN_MOTION":"15.06397796","EPOCH":"2022-03-21T21:37:17.045472","SEMIMAJOR_AXIS":"6925.355","RCS_SIZE":"LARGE","COUNTRY_CODE":"US","INCLINATION":"53.0548","MEAN_ELEMENT_THEORY":"SGP4","REF_FRAME":"TEME","REV_AT_EPOCH":"7347","ELEMENT_SET_NO":"999","ARG_OF_PERICENTER":"69.0196","CENTER_NAME":"EARTH","TLE_LINE1":"1 47157U 20088AM  22080.90089173  .00001421  00000-0  11427-3 0  9997","PERIAPSIS":"546.125","APOAPSIS":"548.316"},{"INCLINATION":"53.0562","REF_FRAME":"TEME","MEAN_ELEMENT_THEORY":"SGP4","ELEMENT_SET_NO":"999","REV_AT_EPOCH":"7361","RA_OF_ASC_NODE":"315.3718","MEAN_MOTION":"15.06403145","EPOCH":"2022-03-21T22:10:27.475104","RCS_SIZE":"LARGE","COUNTRY_CODE":"US","SEMIMAJOR_AXIS":"6925.339","TLE_LINE1":"1 47158U 20088AN  22080.92392911 -.00000611  00000-0 -22150-4 0  9995","APOAPSIS":"548.314","PERIAPSIS":"546.094","ARG_OF_PERICENTER":"71.4862","CENTER_NAME":"EARTH","CLASSIFICATION_TYPE":"U","OBJECT_TYPE":"PAYLOAD","DECAY_DATE":null,"BSTAR":"-0.00002215000000","OBJECT_NAME":"STARLINK-1873","TLE_LINE2":"2 47158  53.0562 315.3718 0001603  71.4862 288.6301 15.06403145 73618","ECCENTRICITY":"0.00016030","NORAD_CAT_ID":"47158","TIME_SYSTEM":"UTC","MEAN_MOTION_DOT":"-0.00000611","FILE":"3368836","LAUNCH_DATE":"2020-11-25","OBJECT_ID":"2020-088AN","SITE":"AFETR","EPHEMERIS_TYPE":"0","PERIOD":"95.592","GP_ID":"199347614","MEAN_MOTION_DDOT":"0.0000000000000","MEAN_ANOMALY":"288.6301"},{"ARG_OF_PERICENTER":"108.4711","CENTER_NAME":"EARTH","APOAPSIS":"325.366","PERIAPSIS":"323.935","TLE_LINE1":"1 47159U 20088AP  22080.82989475  .00001452  00000-0  10383-4 0  9999","MEAN_MOTION":"15.82048475","RA_OF_ASC_NODE":"278.5975","COUNTRY_CODE":"US","RCS_SIZE":"LARGE","SEMIMAJOR_AXIS":"6702.785","EPOCH":"2022-03-21T19:55:02.906400","INCLINATION":"53.0490","ELEMENT_SET_NO":"999","REV_AT_EPOCH":"7412","REF_FRAME":"TEME","MEAN_ELEMENT_THEORY":"SGP4","SITE":"AFETR","EPHEMERIS_TYPE":"0","LAUNCH_DATE":"2020-11-25","OBJECT_ID":"2020-088AP","MEAN_MOTION_DDOT":"0.0000000000000","MEAN_ANOMALY":"251.6426","PERIOD":"91.021","GP_ID":"199347864","FILE":"3368836","TLE_LINE2":"2 47159  53.0490 278.5975 0001067 108.4711 251.6426 15.82048475 74122","TIME_SYSTEM":"UTC","MEAN_MOTION_DOT":"0.00001452","ECCENTRICITY":"0.00010670","NORAD_CAT_ID":"47159","OBJECT_TYPE":"PAYLOAD","DECAY_DATE":null,"BSTAR":"0.00001038300000","CLASSIFICATION_TYPE":"U","OBJECT_NAME":"STARLINK-1874"},{"OBJECT_ID":"2020-088AR","LAUNCH_DATE":"2020-11-25","SITE":"AFETR","EPHEMERIS_TYPE":"0","PERIOD":"95.592","GP_ID":"199348117","MEAN_MOTION_DDOT":"0.0000000000000","MEAN_ANOMALY":"302.7163","FILE":"3368836","TLE_LINE2":"2 47161  53.0542 315.5239 0001483  57.3969 302.7163 15.06402383 73614","ECCENTRICITY":"0.00014830","NORAD_CAT_ID":"47161","TIME_SYSTEM":"UTC","MEAN_MOTION_DOT":"0.00002120","CLASSIFICATION_TYPE":"U","OBJECT_TYPE":"PAYLOAD","DECAY_DATE":null,"BSTAR":"0.00016115000000","OBJECT_NAME":"STARLINK-1876","ARG_OF_PERICENTER":"57.3969","CENTER_NAME":"EARTH","TLE_LINE1":"1 47161U 20088AR  22080.89075633  .00002120  00000-0  16115-3 0  9992","APOAPSIS":"548.233","PERIAPSIS":"546.179","MEAN_MOTION":"15.06402383","RA_OF_ASC_NODE":"315.5239","EPOCH":"2022-03-21T21:22:41.346912","COUNTRY_CODE":"US","RCS_SIZE":"LARGE","SEMIMAJOR_AXIS":"6925.341","INCLINATION":"53.0542","MEAN_ELEMENT_THEORY":"SGP4","REF_FRAME":"TEME","REV_AT_EPOCH":"7361","ELEMENT_SET_NO":"999"},{"PERIAPSIS":"546.003","APOAPSIS":"548.307","TLE_LINE1":"1 47162U 20088AS  22080.88614825  .00005091  00000-0  36024-3 0  9995","CENTER_NAME":"EARTH","ARG_OF_PERICENTER":"60.4894","REV_AT_EPOCH":"7347","ELEMENT_SET_NO":"999","REF_FRAME":"TEME","MEAN_ELEMENT_THEORY":"SGP4","INCLINATION":"53.0549","SEMIMAJOR_AXIS":"6925.290","RCS_SIZE":"LARGE","COUNTRY_CODE":"US","EPOCH":"2022-03-21T21:16:03.208800","MEAN_MOTION":"15.06419070","RA_OF_ASC_NODE":"325.5485","FILE":"3368836","MEAN_ANOMALY":"299.6260","MEAN_MOTION_DDOT":"0.0000000000000","GP_ID":"199348866","PERIOD":"95.591","EPHEMERIS_TYPE":"0","SITE":"AFETR","LAUNCH_DATE":"2020-11-25","OBJECT_ID":"2020-088AS","OBJECT_NAME":"STARLINK-1877","BSTAR":"0.00036024000000","DECAY_DATE":null,"OBJECT_TYPE":"PAYLOAD","CLASSIFICATION_TYPE":"U","MEAN_MOTION_DOT":"0.00005091","TIME_SYSTEM":"UTC","NORAD_CAT_ID":"47162","ECCENTRICITY":"0.00016630","TLE_LINE2":"2 47162  53.0549 325.5485 0001663  60.4894 299.6260 15.06419070 73475"},{"TIME_SYSTEM":"UTC","MEAN_MOTION_DOT":"0.00000667","ECCENTRICITY":"0.00014890","NORAD_CAT_ID":"47163","TLE_LINE2":"2 47163  53.0543 335.4048 0001489  61.9439 298.1700 15.06402869 73338","OBJECT_NAME":"STARLINK-1878","OBJECT_TYPE":"PAYLOAD","DECAY_DATE":null,"BSTAR":"0.00006364100000","CLASSIFICATION_TYPE":"U","MEAN_MOTION_DDOT":"0.0000000000000","MEAN_ANOMALY":"298.1700","PERIOD":"95.592","GP_ID":"199347116","SITE":"AFETR","EPHEMERIS_TYPE":"0","OBJECT_ID":"2020-088AT","LAUNCH_DATE":"2020-11-25","FILE":"3368836","COUNTRY_CODE":"US","RCS_SIZE":"LARGE","SEMIMAJOR_AXIS":"6925.340","EPOCH":"2022-03-21T22:02:29.557824","MEAN_MOTION":"15.06402869","RA_OF_ASC_NODE":"335.4048","REV_AT_EPOCH":"7333","ELEMENT_SET_NO":"999","MEAN_ELEMENT_THEORY":"SGP4","REF_FRAME":"TEME","INCLINATION":"53.0543","CENTER_NAME":"EARTH","ARG_OF_PERICENTER":"61.9439","APOAPSIS":"548.236","PERIAPSIS":"546.174","TLE_LINE1":"1 47163U 20088AT  22080.91839766  .00000667  00000-0  63641-4 0  9993"}];
